{
  "type": "FeatureCollection",
  "features": [
    {
      "type": "Feature",
      "properties": {
        "norad_id": 25730,
        "name": "FENGYUN 1C",
        "group": "fengyun-1c-debris",
        "lat": 76.2177463196517,
        "lon": 6.128543110686102,
        "alt_km": 790.1234505247057,
        "timestamp": "2025-12-05T19:30:25.836362+00:00",
        "meta_object_name": "FENGYUN 1C",
        "meta_object_id": "1999-025A",
        "meta_epoch": "2025-12-05T03:58:50.563200",
        "meta_mean_motion": 14.25987754,
        "meta_eccentricity": 0.00109355,
        "meta_inclination": 98.8851,
        "meta_ra_of_asc_node": 45.0948,
        "meta_arg_of_pericenter": 88.7737,
        "meta_mean_anomaly": 271.4695,
        "meta_ephemeris_type": 0,
        "meta_classification_type": "U",
        "meta_norad_cat_id": 25730,
        "meta_element_set_no": 999,
        "meta_rev_at_epoch": 37029,
        "meta_bstar": 0.0023420044,
        "meta_mean_motion_dot": 5.549e-05,
        "meta_mean_motion_ddot": 0,
        "tle_line1": "1 25730U 99025A   25339.16586300  .00005549  00000+0  23420-2 0  9998",
        "tle_line2": "2 25730  98.8851  45.0948 0010935  88.7737 271.4695 14.25987754370293"
      },
      "geometry": {
        "type": "Point",
        "coordinates": [
          6.128543110686102,
          76.2177463196517
        ]
      }
    },
    {
      "type": "Feature",
      "properties": {
        "norad_id": 29733,
        "name": "FENGYUN 1C DEB",
        "group": "fengyun-1c-debris",
        "lat": 23.18860564524509,
        "lon": 32.93483370889029,
        "alt_km": 1696.1986062089027,
        "timestamp": "2025-12-05T19:30:25.836383+00:00",
        "meta_object_name": "FENGYUN 1C DEB",
        "meta_object_id": "1999-025X",
        "meta_epoch": "2025-12-04T10:25:37.159104",
        "meta_mean_motion": 12.96441419,
        "meta_eccentricity": 0.0569418,
        "meta_inclination": 99.2253,
        "meta_ra_of_asc_node": 35.7577,
        "meta_arg_of_pericenter": 221.0743,
        "meta_mean_anomaly": 211.0418,
        "meta_ephemeris_type": 0,
        "meta_classification_type": "U",
        "meta_norad_cat_id": 29733,
        "meta_element_set_no": 999,
        "meta_rev_at_epoch": 89012,
        "meta_bstar": 0.0029042,
        "meta_mean_motion_dot": 1.716e-05,
        "meta_mean_motion_ddot": 0,
        "tle_line1": "1 29733U 99025X   25338.43445786  .00001716  00000+0  29042-2 0  9994",
        "tle_line2": "2 29733  99.2253  35.7577 0569418 221.0743 211.0418 12.96441419890120"
      },
      "geometry": {
        "type": "Point",
        "coordinates": [
          32.93483370889029,
          23.18860564524509
        ]
      }
    },
    {
      "type": "Feature",
      "properties": {
        "norad_id": 29734,
        "name": "FENGYUN 1C DEB",
        "group": "fengyun-1c-debris",
        "lat": -34.49807415133917,
        "lon": -82.77565265954689,
        "alt_km": 1062.4691796637344,
        "timestamp": "2025-12-05T19:30:25.836396+00:00",
        "meta_object_name": "FENGYUN 1C DEB",
        "meta_object_id": "1999-025Y",
        "meta_epoch": "2025-12-05T07:24:42.600096",
        "meta_mean_motion": 12.91232445,
        "meta_eccentricity": 0.06145944,
        "meta_inclination": 99.1696,
        "meta_ra_of_asc_node": 270.4303,
        "meta_arg_of_pericenter": 28.7163,
        "meta_mean_anomaly": 120.9495,
        "meta_ephemeris_type": 0,
        "meta_classification_type": "U",
        "meta_norad_cat_id": 29734,
        "meta_element_set_no": 999,
        "meta_rev_at_epoch": 88452,
        "meta_bstar": 0.0075008002,
        "meta_mean_motion_dot": 4.624e-05,
        "meta_mean_motion_ddot": 0,
        "tle_line1": "1 29734U 99025Y   25339.30882639  .00004624  00000+0  75008-2 0  9998",
        "tle_line2": "2 29734  99.1696 270.4303 0614594  28.7163 120.9495 12.91232445884522"
      },
      "geometry": {
        "type": "Point",
        "coordinates": [
          -82.77565265954689,
          -34.49807415133917
        ]
      }
    },
    {
      "type": "Feature",
      "properties": {
        "norad_id": 29735,
        "name": "FENGYUN 1C DEB",
        "group": "fengyun-1c-debris",
        "lat": -58.128550067619145,
        "lon": -88.64171909506881,
        "alt_km": 1518.2715222461102,
        "timestamp": "2025-12-05T19:30:25.836407+00:00",
        "meta_object_name": "FENGYUN 1C DEB",
        "meta_object_id": "1999-025Z",
        "meta_epoch": "2025-12-05T06:39:59.938848",
        "meta_mean_motion": 12.75031363,
        "meta_eccentricity": 0.0697868,
        "meta_inclination": 99.3905,
        "meta_ra_of_asc_node": 255.4782,
        "meta_arg_of_pericenter": 191.9372,
        "meta_mean_anomaly": 166.4406,
        "meta_ephemeris_type": 0,
        "meta_classification_type": "U",
        "meta_norad_cat_id": 29735,
        "meta_element_set_no": 999,
        "meta_rev_at_epoch": 87320,
        "meta_bstar": 0.001672105,
        "meta_mean_motion_dot": 9.41e-06,
        "meta_mean_motion_ddot": 0,
        "tle_line1": "1 29735U 99025Z   25339.27777707  .00000941  00000+0  16721-2 0  9999",
        "tle_line2": "2 29735  99.3905 255.4782 0697868 191.9372 166.4406 12.75031363873200"
      },
      "geometry": {
        "type": "Point",
        "coordinates": [
          -88.64171909506881,
          -58.128550067619145
        ]
      }
    },
    {
      "type": "Feature",
      "properties": {
        "norad_id": 29736,
        "name": "FENGYUN 1C DEB",
        "group": "fengyun-1c-debris",
        "lat": 49.35294190065857,
        "lon": -8.342350207376601,
        "alt_km": 1327.6381152022268,
        "timestamp": "2025-12-05T19:30:25.836418+00:00",
        "meta_object_name": "FENGYUN 1C DEB",
        "meta_object_id": "1999-025AA",
        "meta_epoch": "2025-12-01T23:58:11.443584",
        "meta_mean_motion": 12.57457881,
        "meta_eccentricity": 0.07263731,
        "meta_inclination": 99.4012,
        "meta_ra_of_asc_node": 157.4503,
        "meta_arg_of_pericenter": 221.7005,
        "meta_mean_anomaly": 298.6638,
        "meta_ephemeris_type": 0,
        "meta_classification_type": "U",
        "meta_norad_cat_id": 29736,
        "meta_element_set_no": 999,
        "meta_rev_at_epoch": 86409,
        "meta_bstar": 0.00220533,
        "meta_mean_motion_dot": 9.74e-06,
        "meta_mean_motion_ddot": 0,
        "tle_line1": "1 29736U 99025AA  25335.99874356  .00000974  00000+0  22053-2 0  9994",
        "tle_line2": "2 29736  99.4012 157.4503 0726373 221.7005 298.6638 12.57457881864091"
      },
      "geometry": {
        "type": "Point",
        "coordinates": [
          -8.342350207376601,
          49.35294190065857
        ]
      }
    },
    {
      "type": "Feature",
      "properties": {
        "norad_id": 29737,
        "name": "FENGYUN 1C DEB",
        "group": "fengyun-1c-debris",
        "lat": 21.728669198062917,
        "lon": -67.84004686697942,
        "alt_km": 1734.8884154681145,
        "timestamp": "2025-12-05T19:30:25.836429+00:00",
        "meta_object_name": "FENGYUN 1C DEB",
        "meta_object_id": "1999-025AB",
        "meta_epoch": "2025-12-05T02:38:43.255968",
        "meta_mean_motion": 12.65634501,
        "meta_eccentricity": 0.06943236,
        "meta_inclination": 99.5811,
        "meta_ra_of_asc_node": 295.4326,
        "meta_arg_of_pericenter": 155.1326,
        "meta_mean_anomaly": 273.5679,
        "meta_ephemeris_type": 0,
        "meta_classification_type": "U",
        "meta_norad_cat_id": 29737,
        "meta_element_set_no": 999,
        "meta_rev_at_epoch": 86772,
        "meta_bstar": 0.0019405997,
        "meta_mean_motion_dot": 9.1e-06,
        "meta_mean_motion_ddot": 0,
        "tle_line1": "1 29737U 99025AB  25339.11022287  .00000910  00000+0  19406-2 0  9999",
        "tle_line2": "2 29737  99.5811 295.4326 0694323 155.1326 273.5679 12.65634501867726"
      },
      "geometry": {
        "type": "Point",
        "coordinates": [
          -67.84004686697942,
          21.728669198062917
        ]
      }
    },
    {
      "type": "Feature",
      "properties": {
        "norad_id": 29738,
        "name": "FENGYUN 1C DEB",
        "group": "fengyun-1c-debris",
        "lat": 14.666787736747292,
        "lon": -29.517651699705116,
        "alt_km": 1946.151394094658,
        "timestamp": "2025-12-05T19:30:25.836440+00:00",
        "meta_object_name": "FENGYUN 1C DEB",
        "meta_object_id": "1999-025AC",
        "meta_epoch": "2025-12-04T10:11:41.612352",
        "meta_mean_motion": 12.60992133,
        "meta_eccentricity": 0.0863575,
        "meta_inclination": 99.4117,
        "meta_ra_of_asc_node": 146.8594,
        "meta_arg_of_pericenter": 312.4849,
        "meta_mean_anomaly": 40.6297,
        "meta_ephemeris_type": 0,
        "meta_classification_type": "U",
        "meta_norad_cat_id": 29738,
        "meta_element_set_no": 999,
        "meta_rev_at_epoch": 86112,
        "meta_bstar": 0.0028294,
        "meta_mean_motion_dot": 2.11e-05,
        "meta_mean_motion_ddot": 0,
        "tle_line1": "1 29738U 99025AC  25338.42478718  .00002110  00000+0  28294-2 0  9996",
        "tle_line2": "2 29738  99.4117 146.8594 0863575 312.4849  40.6297 12.60992133861126"
      },
      "geometry": {
        "type": "Point",
        "coordinates": [
          -29.517651699705116,
          14.666787736747292
        ]
      }
    }
  ]
}